[
    {
        "Altitude(m)": 612502.2107980952,
        "Argument of Periapsis(deg)": 0.0,
        "Eccentricity": 0.0,
        "Inclination(deg)": 60.0,
        "Latitude(deg)": -28.136025529060337,
        "Longitude(deg)": 22.148301498862388,
        "Mean Anomaly(deg)": -32.72730000000001,
        "RAAN(deg)": 140.0,
        "Satellite Name": "Test1 636",
        "Satellite Number": 636,
        "Semi-Major Axis(m)": 6980739.136638005,
        "Time(s)": 0
    },
    {
        "Altitude(m)": 612308.6583043438,
        "Argument of Periapsis(deg)": 0.00010418945913296404,
        "Eccentricity": 0.0,
        "Inclination(deg)": 60.0,
        "Latitude(deg)": -27.623080230734,
        "Longitude(deg)": 22.501774697993188,
        "Mean Anomaly(deg)": -32.10719385453816,
        "RAAN(deg)": 139.99957995086024,
        "Satellite Name": "Test1 636",
        "Satellite Number": 636,
        "Semi-Major Axis(m)": 6980739.136638005,
        "Time(s)": 10
    },
    {
        "Altitude(m)": 612116.0747168082,
        "Argument of Periapsis(deg)": 0.0002083789182659281,
        "Eccentricity": 0.0,
        "Inclination(deg)": 60.0,
        "Latitude(deg)": -27.108966075108153,
        "Longitude(deg)": 22.851596737041103,
        "Mean Anomaly(deg)": -31.48708770907633,
        "RAAN(deg)": 139.99915990172053,
        "Satellite Name": "Test1 636",
        "Satellite Number": 636,
        "Semi-Major Axis(m)": 6980739.136638005,
        "Time(s)": 20
    },
    {
        "Altitude(m)": 611924.5296222598,
        "Argument of Periapsis(deg)": 0.00031256837739889213,
        "Eccentricity": 0.0,
        "Inclination(deg)": 60.0,
        "Latitude(deg)": -26.593717377504916,
        "Longitude(deg)": 23.197872032627306,
        "Mean Anomaly(deg)": -30.86698156361448,
        "RAAN(deg)": 139.99873985258074,
        "Satellite Name": "Test1 636",
        "Satellite Number": 636,
        "Semi-Major Axis(m)": 6980739.136638005,
        "Time(s)": 30
    },
    {
        "Altitude(m)": 611734.0920008465,
        "Argument of Periapsis(deg)": 0.0004167578365318562,
        "Eccentricity": 0.0,
        "Inclination(deg)": 60.0,
        "Latitude(deg)": -26.077367603901788,
        "Longitude(deg)": 23.540703283765133,
        "Mean Anomaly(deg)": -30.246875418152648,
        "RAAN(deg)": 139.998319803441,
        "Satellite Name": "Test1 636",
        "Satellite Number": 636,
        "Semi-Major Axis(m)": 6980739.136638005,
        "Time(s)": 40
    },
    {
        "Altitude(m)": 611544.8301955994,
        "Argument of Periapsis(deg)": 0.0005209472956648203,
        "Eccentricity": 0.0,
        "Inclination(deg)": 60.0,
        "Latitude(deg)": -25.559949403335708,
        "Longitude(deg)": 23.880190527120043,
        "Mean Anomaly(deg)": -29.626769272690794,
        "RAAN(deg)": 139.99789975430127,
        "Satellite Name": "Test1 636",
        "Satellite Number": 636,
        "Semi-Major Axis(m)": 6980739.136638005,
        "Time(s)": 50
    },
    {
        "Altitude(m)": 611356.8118821934,
        "Argument of Periapsis(deg)": 0.0006251367547977843,
        "Eccentricity": 0.0,
        "Inclination(deg)": 60.0,
        "Latitude(deg)": -25.041494639200586,
        "Longitude(deg)": 24.2164317043896,
        "Mean Anomaly(deg)": -29.006663127229068,
        "RAAN(deg)": 139.99747970516154,
        "Satellite Name": "Test1 636",
        "Satellite Number": 636,
        "Semi-Major Axis(m)": 6980739.136638005,
        "Time(s)": 60
    },
    {
        "Altitude(m)": 611170.1040390335,
        "Argument of Periapsis(deg)": 0.0007293262139307483,
        "Eccentricity": 0.0,
        "Inclination(deg)": 60.0,
        "Latitude(deg)": -24.522034419478338,
        "Longitude(deg)": 24.54952322887043,
        "Mean Anomaly(deg)": -28.38655698176722,
        "RAAN(deg)": 139.99705965602178,
        "Satellite Name": "Test1 636",
        "Satellite Number": 636,
        "Semi-Major Axis(m)": 6980739.136638005,
        "Time(s)": 70
    },
    {
        "Altitude(m)": 610984.7729176234,
        "Argument of Periapsis(deg)": 0.0008335156730637124,
        "Eccentricity": 0.0,
        "Inclination(deg)": 60.0,
        "Latitude(deg)": -24.00159912594511,
        "Longitude(deg)": 24.879559038287994,
        "Mean Anomaly(deg)": -27.76645083630539,
        "RAAN(deg)": 139.99663960688204,
        "Satellite Name": "Test1 636",
        "Satellite Number": 636,
        "Semi-Major Axis(m)": 6980739.136638005,
        "Time(s)": 80
    },
    {
        "Altitude(m)": 610800.8840132926,
        "Argument of Periapsis(deg)": 0.0009377051321966765,
        "Eccentricity": 0.0,
        "Inclination(deg)": 60.0,
        "Latitude(deg)": -23.48021844238177,
        "Longitude(deg)": 25.20663115959409,
        "Mean Anomaly(deg)": -27.146344690843538,
        "RAAN(deg)": 139.9962195577423,
        "Satellite Name": "Test1 636",
        "Satellite Number": 636,
        "Semi-Major Axis(m)": 6980739.136638005,
        "Time(s)": 90
    },
    {
        "Altitude(m)": 610618.502036254,
        "Argument of Periapsis(deg)": 0.0010418945913296407,
        "Eccentricity": 0.0,
        "Inclination(deg)": 60.0,
        "Latitude(deg)": -22.95792138182951,
        "Longitude(deg)": 25.53083027282655,
        "Mean Anomaly(deg)": -26.52623854538171,
        "RAAN(deg)": 139.99579950860257,
        "Satellite Name": "Test1 636",
        "Satellite Number": 636,
        "Semi-Major Axis(m)": 6980739.136638005,
        "Time(s)": 100
    },
    {
        "Altitude(m)": 610437.6908830344,
        "Argument of Periapsis(deg)": 0.0011460840504626045,
        "Eccentricity": 0.0,
        "Inclination(deg)": 60.0,
        "Latitude(deg)": -22.4347363129271,
        "Longitude(deg)": 25.852244761130457,
        "Mean Anomaly(deg)": -25.906132399919855,
        "RAAN(deg)": 139.9953794594628,
        "Satellite Name": "Test1 636",
        "Satellite Number": 636,
        "Semi-Major Axis(m)": 6980739.136638005,
        "Time(s)": 110
    },
    {
        "Altitude(m)": 610258.513608262,
        "Argument of Periapsis(deg)": 0.0012502735095955685,
        "Eccentricity": 0.0,
        "Inclination(deg)": 60.0,
        "Latitude(deg)": -21.910690985359736,
        "Longitude(deg)": 26.17096127266953,
        "Mean Anomaly(deg)": -25.28602625445803,
        "RAAN(deg)": 139.99495941032308,
        "Satellite Name": "Test1 636",
        "Satellite Number": 636,
        "Semi-Major Axis(m)": 6980739.136638005,
        "Time(s)": 120
    },
    {
        "Altitude(m)": 610081.0323968617,
        "Argument of Periapsis(deg)": 0.0013544629687285324,
        "Eccentricity": 0.0,
        "Inclination(deg)": 60.0,
        "Latitude(deg)": -21.38581255445526,
        "Longitude(deg)": 26.48706528153973,
        "Mean Anomaly(deg)": -24.66592010899628,
        "RAAN(deg)": 139.99453936118334,
        "Satellite Name": "Test1 636",
        "Satellite Number": 636,
        "Semi-Major Axis(m)": 6980739.136638005,
        "Time(s)": 130
    },
    {
        "Altitude(m)": 609905.3085366357,
        "Argument of Periapsis(deg)": 0.0014586524278614966,
        "Eccentricity": 0.0,
        "Inclination(deg)": 60.0,
        "Latitude(deg)": -20.8601276049634,
        "Longitude(deg)": 26.800640134805178,
        "Mean Anomaly(deg)": -24.04581396353435,
        "RAAN(deg)": 139.9941193120436,
        "Satellite Name": "Test1 636",
        "Satellite Number": 636,
        "Semi-Major Axis(m)": 6980739.136638005,
        "Time(s)": 140
    },
    {
        "Altitude(m)": 609731.402391279,
        "Argument of Periapsis(deg)": 0.0015628418869944607,
        "Eccentricity": 0.0,
        "Inclination(deg)": 60.0,
        "Latitude(deg)": -20.333662174045603,
        "Longitude(deg)": 27.111767611397667,
        "Mean Anomaly(deg)": -23.4257078180726,
        "RAAN(deg)": 139.99369926290385,
        "Satellite Name": "Test1 636",
        "Satellite Number": 636,
        "Semi-Major Axis(m)": 6980739.136638005,
        "Time(s)": 150
    },
    {
        "Altitude(m)": 609559.3733738137,
        "Argument of Periapsis(deg)": 0.0016670313461274247,
        "Eccentricity": 0.0,
        "Inclination(deg)": 60.0,
        "Latitude(deg)": -19.806441773506723,
        "Longitude(deg)": 27.42052848000996,
        "Mean Anomaly(deg)": -22.80560167261077,
        "RAAN(deg)": 139.99327921376414,
        "Satellite Name": "Test1 636",
        "Satellite Number": 636,
        "Semi-Major Axis(m)": 6980739.136638005,
        "Time(s)": 160
    },
    {
        "Altitude(m)": 609389.2799204756,
        "Argument of Periapsis(deg)": 0.0017712208052603888,
        "Eccentricity": 0.0,
        "Inclination(deg)": 60.0,
        "Latitude(deg)": -19.27849141130511,
        "Longitude(deg)": 27.727001543111676,
        "Mean Anomaly(deg)": -22.185495527148916,
        "RAAN(deg)": 139.99285916462438,
        "Satellite Name": "Test1 636",
        "Satellite Number": 636,
        "Semi-Major Axis(m)": 6980739.136638005,
        "Time(s)": 170
    },
    {
        "Altitude(m)": 609221.1794650578,
        "Argument of Periapsis(deg)": 0.001875410264393353,
        "Eccentricity": 0.0,
        "Inclination(deg)": 60.0,
        "Latitude(deg)": -18.74983561236227,
        "Longitude(deg)": 28.031264192844237,
        "Mean Anomaly(deg)": -21.565389381687087,
        "RAAN(deg)": 139.99243911548464,
        "Satellite Name": "Test1 636",
        "Satellite Number": 636,
        "Semi-Major Axis(m)": 6980739.136638005,
        "Time(s)": 180
    },
    {
        "Altitude(m)": 609055.1284137146,
        "Argument of Periapsis(deg)": 0.0019795997235263173,
        "Eccentricity": 0.0,
        "Inclination(deg)": 60.0,
        "Latitude(deg)": -18.220498438704624,
        "Longitude(deg)": 28.33339296593225,
        "Mean Anomaly(deg)": -20.945283236225237,
        "RAAN(deg)": 139.99201906634488,
        "Satellite Name": "Test1 636",
        "Satellite Number": 636,
        "Semi-Major Axis(m)": 6980739.136638005,
        "Time(s)": 190
    }
]